     2.11           N: GPS NAV DATA                         RINEX VERSION / TYPE
teqc  2019Feb25                         20221121 12:23:53UTCPGM / RUN BY / DATE
OSX ker:10.11.6|Core i5|gcc 4.3 -m64|OSX ker:10.10+|=+      COMMENT
    6.5193D-09  2.2352D-08 -5.9605D-08 -1.1921D-07          ION ALPHA
    8.6016D+04  9.8304D+04 -6.5536D+04 -5.2429D+05          ION BETA
   -1.862645149231D-09-1.243449787580D-14    61440     1535 DELTA-UTC: A0,A1,T,W
                                                            END OF HEADER
30 09  6  5 10  0  0.0 1.514395698905D-04 2.842170943040D-12 0.000000000000D+00
    9.000000000000D+00 1.843750000000D+00 4.656622538449D-09 1.549408249427D+00
    3.352761268616D-08 1.144550018944D-02 8.571892976761D-06 5.153585382462D+03
    4.680000000000D+05-9.685754776001D-08-2.660473145694D+00-2.589076757431D-07
    9.523141801652D-01 2.092812500000D+02 1.419029603547D+00-8.031048811133D-09
    7.000291590243D-10 1.000000000000D+00 1.534000000000D+03 0.000000000000D+00
    2.000000000000D+00 0.000000000000D+00-8.381903171539D-09 9.000000000000D+00
    4.608180000000D+05 4.000000000000D+00
29 09  6  5 10  0  0.0 2.711312845349D-05 3.751665644813D-12 0.000000000000D+00
    3.900000000000D+01-8.937500000000D+00 4.936991359792D-09 3.131678168109D+00
   -7.227063179016D-07 3.419491695240D-03 5.712732672691D-06 5.153662719727D+03
    4.680000000000D+05 1.173466444016D-07-1.544971489532D+00 8.568167686462D-08
    9.594588467750D-01 2.654687500000D+02-1.317058332492D+00-8.065693111350D-09
   -1.489347751598D-10 1.000000000000D+00 1.534000000000D+03 0.000000000000D+00
    2.000000000000D+00 0.000000000000D+00-8.847564458847D-09 3.900000000000D+01
    4.620060000000D+05 4.000000000000D+00
10 09  6  5 10  0  0.0-1.705251634121D-05-5.684341886081D-13 0.000000000000D+00
    3.800000000000D+01 1.094062500000D+02 4.698767151084D-09 4.557415716258D-01
    5.960464477539D-06 8.586572948843D-03 4.414469003677D-06 5.153615613937D+03
    4.680000000000D+05 2.235174179077D-08 5.476497261865D-01 1.229345798492D-07
    9.584894689794D-01 2.896562500000D+02 6.257212343610D-01-8.341061724415D-09
    1.714357124141D-11 1.000000000000D+00 1.534000000000D+03 0.000000000000D+00
    2.000000000000D+00 0.000000000000D+00-2.793967723846D-09 3.800000000000D+01
    4.624260000000D+05 4.000000000000D+00
25 09  6  5 10  0  0.0 4.477072507143D-04 1.841726771090D-11 0.000000000000D+00
    1.070000000000D+02-1.180937500000D+02 3.835874065266D-09 2.263967987103D+00
   -6.038695573807D-06 1.138328341767D-02 8.294358849525D-06 5.153652585983D+03
    4.680000000000D+05 1.043081283569D-07 2.524558102435D+00 1.192092895508D-07
    9.699291869981D-01 2.241875000000D+02-1.207836590739D+00-7.478882954066D-09
   -1.089331089298D-10 1.000000000000D+00 1.534000000000D+03 0.000000000000D+00
    2.000000000000D+00 0.000000000000D+00-7.450580596924D-09 1.070000000000D+02
    4.638420000000D+05 4.000000000000D+00
10 09  6  5  9 59 44.0-1.704972237349D-05-5.684341886081D-13 0.000000000000D+00
    4.600000000000D+01 1.094062500000D+02 4.699124308818D-09 4.534081953456D-01
    5.958601832390D-06 8.586572250351D-03 4.414469003677D-06 5.153615629196D+03
    4.679840000000D+05 2.235174179077D-08 5.476498461457D-01 1.210719347000D-07
    9.584894163143D-01 2.896562500000D+02 6.257207120992D-01-8.341061724415D-09
    1.750072897561D-11 1.000000000000D+00 1.534000000000D+03 0.000000000000D+00
    2.000000000000D+00 0.000000000000D+00-2.793967723846D-09 4.600000000000D+01
    4.642380000000D+05 4.000000000000D+00
24 09  6  5 10  0  0.0 1.943716779351D-04 2.955857780762D-12 0.000000000000D+00
    1.500000000000D+01 5.643750000000D+01 4.615906556750D-09 1.767799717417D+00
    2.924352884293D-06 6.697508972138D-03 1.061521470547D-05 5.153682331085D+03
    4.680000000000D+05 1.098960638046D-07-4.726098655722D-01 3.725290298462D-09
    9.508243926696D-01 1.690937500000D+02-6.501572240123D-01-7.837112161465D-09
   -4.571618997710D-10 1.000000000000D+00 1.534000000000D+03 0.000000000000D+00
    2.000000000000D+00 0.000000000000D+00-1.396983861923D-09 1.500000000000D+01
    4.648860000000D+05 4.000000000000D+00
23 09  6  5  9 59 44.0 3.901855088770D-04 0.000000000000D+00 0.000000000000D+00
    4.000000000000D+00-4.662500000000D+01 4.406254966777D-09-6.071412926147D-01
   -2.564862370491D-06 6.155226612464D-03 1.363456249237D-06 5.153603076935D+03
    4.679840000000D+05 9.313225746155D-08 1.576792529567D+00-1.713633537292D-07
    9.700965740848D-01 3.596250000000D+02 2.886518826364D+00-8.267844388905D-09
   -2.657253542419D-10 1.000000000000D+00 1.534000000000D+03 0.000000000000D+00
    2.000000000000D+00 0.000000000000D+00-2.002343535423D-08 4.000000000000D+00
    4.655160000000D+05 4.000000000000D+00
 7 09  6  5 10  0  0.0 1.761922612786D-05-6.821210263297D-13 0.000000000000D+00
    2.800000000000D+01-1.004375000000D+02 3.918020344131D-09-2.182163528921D+00
   -5.198642611504D-06 2.629609662108D-03 9.287148714066D-06 5.153672494888D+03
    4.680000000000D+05 7.450580596924D-09 2.619018074741D+00 4.097819328308D-08
    9.677423965724D-01 2.060625000000D+02 2.877098946171D+00-7.689606017242D-09
    7.607459738377D-11 1.000000000000D+00 1.534000000000D+03 0.000000000000D+00
    2.000000000000D+00 0.000000000000D+00-1.071020960808D-08 2.800000000000D+01
    4.661760000000D+05 4.000000000000D+00
16 09  6  5 10  0  0.0 4.476588219404D-05-3.410605131648D-12 0.000000000000D+00
    2.900000000000D+01 4.250000000000D+00 4.279463971137D-09 1.661844327950D+00
    2.719461917877D-07 5.355238798074D-03 8.199363946915D-06 5.153553955078D+03
    4.680000000000D+05 3.911554813385D-08-2.595622265195D+00 5.401670932770D-08
    9.686588723244D-01 2.247187500000D+02-3.495083315906D-01-7.730321998940D-09
    5.653806932324D-10 1.000000000000D+00 1.534000000000D+03 0.000000000000D+00
    2.000000000000D+00 0.000000000000D+00-9.778887033463D-09 2.900000000000D+01
    4.662420000000D+05 4.000000000000D+00
16 09  6  5 12  0  0.0 4.474120214581D-05-3.410605131648D-12 0.000000000000D+00
    5.000000000000D+01 4.906250000000D+00 4.268749239112D-09 2.712020178961D+00
    2.849847078323D-07 5.355147179216D-03 8.406117558479D-06 5.153554679871D+03
    4.752000000000D+05 5.587935447693D-09-2.595677999447D+00 5.774199962616D-08
    9.686630094568D-01 2.210937500000D+02-3.494322042596D-01-7.718535793712D-09
    5.839528954106D-10 1.000000000000D+00 1.534000000000D+03 0.000000000000D+00
    2.000000000000D+00 0.000000000000D+00-9.778887033463D-09 5.000000000000D+01
    4.680180000000D+05 4.000000000000D+00
 2 09  6  5 12  0  0.0 1.555746421218D-04 9.094947017729D-13 0.000000000000D+00
    8.000000000000D+00 3.259375000000D+01 4.973421448680D-09 5.616938055787D-01
    1.722946763039D-06 9.051970439032D-03 9.981915354729D-06 5.153666265488D+03
    4.752000000000D+05 1.583248376846D-07-5.363829543430D-01-4.656612873077D-08
    9.413939882440D-01 1.778437500000D+02 2.833124788802D+00-8.104266146643D-09
   -3.189418566371D-10 1.000000000000D+00 1.534000000000D+03 0.000000000000D+00
    2.000000000000D+00 0.000000000000D+00-1.722946763039D-08 8.000000000000D+00
    4.680180000000D+05 4.000000000000D+00
 4 09  6  5 12  0  0.0-1.201941631734D-04-1.568878360558D-11 0.000000000000D+00
    9.500000000000D+01 3.571875000000D+01 4.875560229511D-09-2.847148195699D+00
    1.734122633934D-06 8.594377199188D-03 1.072138547897D-05 5.153754053116D+03
    4.752000000000D+05-8.568167686462D-08-5.180242219024D-01-1.434236764908D-07
    9.406182759325D-01 1.643437500000D+02 4.867462624099D-01-7.884971297847D-09
   -3.232277494475D-10 1.000000000000D+00 1.534000000000D+03 0.000000000000D+00
    2.000000000000D+00 0.000000000000D+00-6.053596735001D-09 9.500000000000D+01
    4.680180000000D+05 4.000000000000D+00
10 09  6  5 11 59 44.0-1.705344766378D-05-5.684341886081D-13 0.000000000000D+00
    8.900000000000D+01 1.106875000000D+02 4.704124517097D-09 1.503470961326D+00
    5.949288606644D-06 8.587632328272D-03 5.370005965233D-06 5.153618829727D+03
    4.751840000000D+05-1.527369022369D-07 5.475893939819D-01 1.955777406693D-07
    9.584897469338D-01 2.774687500000D+02 6.258747880943D-01-8.289988168425D-09
    1.132190017402D-10 1.000000000000D+00 1.534000000000D+03 0.000000000000D+00
    2.000000000000D+00 0.000000000000D+00-2.793967723846D-09 8.900000000000D+01
    4.680180000000D+05 4.000000000000D+00
13 09  6  5 12  0  0.0 2.987487241626D-04 9.094947017729D-13 0.000000000000D+00
    1.500000000000D+01-5.740625000000D+01 3.920520448270D-09 1.188738717476D+00
   -3.280118107796D-06 4.158475669101D-03 1.724809408188D-06 5.153699407578D+03
    4.752000000000D+05-9.313225746155D-09 1.628994136750D+00-4.284083843231D-08
    9.945957500938D-01 3.654062500000D+02 1.582454797880D+00-8.032120284336D-09
   -3.300137463972D-10 1.000000000000D+00 1.534000000000D+03 0.000000000000D+00
    2.000000000000D+00 0.000000000000D+00-1.117587089539D-08 1.500000000000D+01
    4.680180000000D+05 4.000000000000D+00
29 09  6  5 12  0  0.0 2.713967114687D-05 3.751665644813D-12 0.000000000000D+00
    7.800000000000D+01-9.625000000000D+00 4.804842998140D-09-2.101290339520D+00
   -3.315508365631D-07 3.419441287406D-03 5.656853318214D-06 5.153662883759D+03
    4.752000000000D+05 1.303851604462D-08-1.545029675636D+00 8.381903171539D-08
    9.594581796844D-01 2.662500000000D+02-1.317084811309D+00-8.024977129652D-09
   -9.178953768839D-11 1.000000000000D+00 1.534000000000D+03 0.000000000000D+00
    2.000000000000D+00 0.000000000000D+00-8.847564458847D-09 7.800000000000D+01
    4.680180000000D+05 4.000000000000D+00
